[{"CCSDS_OMM_VERS":"2.0","COMMENT":"GENERATED VIA SPACE-TRACK.ORG API","CREATION_DATE":"2004-08-15T23:35:38","ORIGINATOR":"18 SPCS","OBJECT_NAME":"OPS 8431","OBJECT_ID":"1965-037A","CENTER_NAME":"EARTH","REF_FRAME":"TEME","TIME_SYSTEM":"UTC","MEAN_ELEMENT_THEORY":"SGP4","EPOCH":"1965-06-14T16:17:11.400287","MEAN_MOTION":"16.33094224","ECCENTRICITY":"0.00198140","INCLINATION":"74.9947","RA_OF_ASC_NODE":"156.5818","ARG_OF_PERICENTER":"89.1021","MEAN_ANOMALY":"271.1440","EPHEMERIS_TYPE":"0","CLASSIFICATION_TYPE":"U","NORAD_CAT_ID":"1374","ELEMENT_SET_NO":"999","REV_AT_EPOCH":"434","BSTAR":"0.00000000000000","MEAN_MOTION_DOT":"0.02627918","MEAN_MOTION_DDOT":"0.0219910000000","SEMIMAJOR_AXIS":"6562.378","PERIOD":"88.176","APOAPSIS":"197.246","PERIAPSIS":"171.241","OBJECT_TYPE":"PAYLOAD","RCS_SIZE":null,"COUNTRY_CODE":null,"LAUNCH_DATE":null,"SITE":null,"DECAY_DATE":"1965-06-15","FILE":"33911","GP_ID":"8701486","TLE_LINE0":"0 OPS 8431","TLE_LINE1":"1 01374U 65037  A 65165.67860417  .02627918 +21991-1 +00000-0 0  9996","TLE_LINE2":"2 01374 074.9947 156.5818 0019814 089.1021 271.1440 16.33094224004349"},{"CCSDS_OMM_VERS":"2.0","COMMENT":"GENERATED VIA SPACE-TRACK.ORG API","CREATION_DATE":"2004-08-15T23:35:38","ORIGINATOR":"18 SPCS","OBJECT_NAME":"SL-3 DEB","OBJECT_ID":"1965-046D","CENTER_NAME":"EARTH","REF_FRAME":"TEME","TIME_SYSTEM":"UTC","MEAN_ELEMENT_THEORY":"SGP4","EPOCH":"1965-06-16T10:56:50.682624","MEAN_MOTION":"16.16340159","ECCENTRICITY":"0.00721890","INCLINATION":"65.0127","RA_OF_ASC_NODE":"81.4728","ARG_OF_PERICENTER":"20.2995","MEAN_ANOMALY":"340.0726","EPHEMERIS_TYPE":"0","CLASSIFICATION_TYPE":"U","NORAD_CAT_ID":"1407","ELEMENT_SET_NO":"999","REV_AT_EPOCH":"17","BSTAR":"0.00000000000000","MEAN_MOTION_DOT":"0.10473984","MEAN_MOTION_DDOT":"0.3268500000000","SEMIMAJOR_AXIS":"6607.648","PERIOD":"89.090","APOAPSIS":"277.213","PERIAPSIS":"181.813","OBJECT_TYPE":"DEBRIS","RCS_SIZE":null,"COUNTRY_CODE":null,"LAUNCH_DATE":null,"SITE":null,"DECAY_DATE":"1965-06-19","FILE":"33911","GP_ID":"8701872","TLE_LINE0":"0 SL-3 DEB","TLE_LINE1":"1 01407U 65046  D 65167.45614216  .10473984 +32685-0 +00000-0 0  9997","TLE_LINE2":"2 01407 065.0127 081.4728 0072189 020.2995 340.0726 16.16340159000175"},{"CCSDS_OMM_VERS":"2.0","COMMENT":"GENERATED VIA SPACE-TRACK.ORG API","CREATION_DATE":"2004-08-15T23:35:38","ORIGINATOR":"18 SPCS","OBJECT_NAME":"COSMOS 68","OBJECT_ID":"1965-046A","CENTER_NAME":"EARTH","REF_FRAME":"TEME","TIME_SYSTEM":"UTC","MEAN_ELEMENT_THEORY":"SGP4","EPOCH":"1965-06-17T12:25:46.309439","MEAN_MOTION":"16.05251932","ECCENTRICITY":"0.00892180","INCLINATION":"65.0162","RA_OF_ASC_NODE":"77.5540","ARG_OF_PERICENTER":"25.2355","MEAN_ANOMALY":"335.2781","EPHEMERIS_TYPE":"0","CLASSIFICATION_TYPE":"U","NORAD_CAT_ID":"1404","ELEMENT_SET_NO":"999","REV_AT_EPOCH":"34","BSTAR":"0.00000000000000","MEAN_MOTION_DOT":"0.00152758","MEAN_MOTION_DDOT":"0.0000584140000","SEMIMAJOR_AXIS":"6638.041","PERIOD":"89.705","APOAPSIS":"319.130","PERIAPSIS":"200.683","OBJECT_TYPE":"PAYLOAD","RCS_SIZE":null,"COUNTRY_CODE":null,"LAUNCH_DATE":null,"SITE":null,"DECAY_DATE":"1965-06-23","FILE":"33911","GP_ID":"8701864","TLE_LINE0":"0 COSMOS 68","TLE_LINE1":"1 01404U 65046  A 65168.51789710  .00152758 +58414-4 +00000-0 0  9998","TLE_LINE2":"2 01404 065.0162 077.5540 0089218 025.2355 335.2781 16.05251932000349"},{"CCSDS_OMM_VERS":"2.0","COMMENT":"GENERATED VIA SPACE-TRACK.ORG API","CREATION_DATE":"2004-08-15T23:35:38","ORIGINATOR":"18 SPCS","OBJECT_NAME":"OPS 8425 DEB","OBJECT_ID":"1965-045B","CENTER_NAME":"EARTH","REF_FRAME":"TEME","TIME_SYSTEM":"UTC","MEAN_ELEMENT_THEORY":"SGP4","EPOCH":"1965-06-17T14:48:13.456223","MEAN_MOTION":"16.32863428","ECCENTRICITY":"0.01156130","INCLINATION":"75.1339","RA_OF_ASC_NODE":"281.0169","ARG_OF_PERICENTER":"160.5154","MEAN_ANOMALY":"200.0290","EPHEMERIS_TYPE":"0","CLASSIFICATION_TYPE":"U","NORAD_CAT_ID":"1414","ELEMENT_SET_NO":"999","REV_AT_EPOCH":"124","BSTAR":"0.00000000000000","MEAN_MOTION_DOT":"0.69566142","MEAN_MOTION_DDOT":"15.8220000000000","SEMIMAJOR_AXIS":"6562.997","PERIOD":"88.188","APOAPSIS":"260.738","PERIAPSIS":"108.985","OBJECT_TYPE":"DEBRIS","RCS_SIZE":null,"COUNTRY_CODE":null,"LAUNCH_DATE":null,"SITE":null,"DECAY_DATE":"1965-06-20","FILE":"33911","GP_ID":"8701936","TLE_LINE0":"0 OPS 8425 DEB","TLE_LINE1":"1 01414U 65045  B 65168.61682241  .69566142 +1582202 +00000-0 0  9994","TLE_LINE2":"2 01414 075.1339 281.0169 0115613 160.5154 200.0290 16.32863428001249"},{"CCSDS_OMM_VERS":"2.0","COMMENT":"GENERATED VIA SPACE-TRACK.ORG API","CREATION_DATE":"2004-08-15T23:35:38","ORIGINATOR":"18 SPCS","OBJECT_NAME":"OPS 8425","OBJECT_ID":"1965-045A","CENTER_NAME":"EARTH","REF_FRAME":"TEME","TIME_SYSTEM":"UTC","MEAN_ELEMENT_THEORY":"SGP4","EPOCH":"1965-06-18T23:34:55.807103","MEAN_MOTION":"16.18979643","ECCENTRICITY":"0.00841290","INCLINATION":"75.0556","RA_OF_ASC_NODE":"277.9194","ARG_OF_PERICENTER":"121.5994","MEAN_ANOMALY":"239.2556","EPHEMERIS_TYPE":"0","CLASSIFICATION_TYPE":"U","NORAD_CAT_ID":"1396","ELEMENT_SET_NO":"999","REV_AT_EPOCH":"146","BSTAR":"0.00000000000000","MEAN_MOTION_DOT":"0.02528251","MEAN_MOTION_DDOT":"0.0199760000000","SEMIMAJOR_AXIS":"6600.464","PERIOD":"88.944","APOAPSIS":"277.858","PERIAPSIS":"166.800","OBJECT_TYPE":"PAYLOAD","RCS_SIZE":null,"COUNTRY_CODE":null,"LAUNCH_DATE":null,"SITE":null,"DECAY_DATE":"1965-06-22","FILE":"33911","GP_ID":"8701660","TLE_LINE0":"0 OPS 8425","TLE_LINE1":"1 01396U 65045  A 65169.98259036  .02528251 +19976-1 +00000-0 0  9996","TLE_LINE2":"2 01396 075.0556 277.9194 0084129 121.5994 239.2556 16.18979643001460"},{"CCSDS_OMM_VERS":"2.0","COMMENT":"GENERATED VIA SPACE-TRACK.ORG API","CREATION_DATE":"2004-08-15T23:35:38","ORIGINATOR":"18 SPCS","OBJECT_NAME":"LEAD BALLAST","OBJECT_ID":"1965-047A","CENTER_NAME":"EARTH","REF_FRAME":"TEME","TIME_SYSTEM":"UTC","MEAN_ELEMENT_THEORY":"SGP4","EPOCH":"1965-06-24T10:09:57.749183","MEAN_MOTION":"16.38676317","ECCENTRICITY":"0.00077590","INCLINATION":"32.1378","RA_OF_ASC_NODE":"231.7215","ARG_OF_PERICENTER":"17.2827","MEAN_ANOMALY":"342.8007","EPHEMERIS_TYPE":"0","CLASSIFICATION_TYPE":"U","NORAD_CAT_ID":"1412","ELEMENT_SET_NO":"999","REV_AT_EPOCH":"96","BSTAR":"0.00000000000000","MEAN_MOTION_DOT":"0.00571379","MEAN_MOTION_DDOT":"0.0010360000000","SEMIMAJOR_AXIS":"6547.467","PERIOD":"87.875","APOAPSIS":"174.412","PERIAPSIS":"164.252","OBJECT_TYPE":"PAYLOAD","RCS_SIZE":null,"COUNTRY_CODE":null,"LAUNCH_DATE":null,"SITE":null,"DECAY_DATE":"1965-06-29","FILE":"33911","GP_ID":"8701935","TLE_LINE0":"0 LEAD BALLAST","TLE_LINE1":"1 01412U 65047  A 65175.42358506  .00571379 +10360-2 +00000-0 0  9991","TLE_LINE2":"2 01412 032.1378 231.7215 0007759 017.2827 342.8007 16.38676317000967"},{"CCSDS_OMM_VERS":"2.0","COMMENT":"GENERATED VIA SPACE-TRACK.ORG API","CREATION_DATE":"2004-08-15T23:35:38","ORIGINATOR":"18 SPCS","OBJECT_NAME":"ATLAS AGENA D R\/B","OBJECT_ID":"1965-050C","CENTER_NAME":"EARTH","REF_FRAME":"TEME","TIME_SYSTEM":"UTC","MEAN_ELEMENT_THEORY":"SGP4","EPOCH":"1965-06-26T14:13:04.376928","MEAN_MOTION":"16.26418400","ECCENTRICITY":"0.00779050","INCLINATION":"107.6257","RA_OF_ASC_NODE":"255.9782","ARG_OF_PERICENTER":"136.3371","MEAN_ANOMALY":"224.3366","EPHEMERIS_TYPE":"0","CLASSIFICATION_TYPE":"U","NORAD_CAT_ID":"1426","ELEMENT_SET_NO":"999","REV_AT_EPOCH":"13","BSTAR":"0.00000000000000","MEAN_MOTION_DOT":"0.09434223","MEAN_MOTION_DDOT":"0.2847200000000","SEMIMAJOR_AXIS":"6580.323","PERIOD":"88.538","APOAPSIS":"253.452","PERIAPSIS":"150.924","OBJECT_TYPE":"ROCKET BODY","RCS_SIZE":null,"COUNTRY_CODE":null,"LAUNCH_DATE":null,"SITE":null,"DECAY_DATE":"1965-06-27","FILE":"33911","GP_ID":"8701988","TLE_LINE0":"0 ATLAS AGENA D R\/B","TLE_LINE1":"1 01426U 65050  C 65177.59241177  .09434223 +28472-0 +00000-0 0  9991","TLE_LINE2":"2 01426 107.6257 255.9782 0077905 136.3371 224.3366 16.26418400000135"},{"CCSDS_OMM_VERS":"2.0","COMMENT":"GENERATED VIA SPACE-TRACK.ORG API","CREATION_DATE":"2004-08-15T23:35:38","ORIGINATOR":"18 SPCS","OBJECT_NAME":"OPS 5501","OBJECT_ID":"1965-050B","CENTER_NAME":"EARTH","REF_FRAME":"TEME","TIME_SYSTEM":"UTC","MEAN_ELEMENT_THEORY":"SGP4","EPOCH":"1965-06-26T20:09:58.240223","MEAN_MOTION":"16.21380144","ECCENTRICITY":"0.01015080","INCLINATION":"107.6357","RA_OF_ASC_NODE":"256.6470","ARG_OF_PERICENTER":"136.9517","MEAN_ANOMALY":"223.9035","EPHEMERIS_TYPE":"0","CLASSIFICATION_TYPE":"U","NORAD_CAT_ID":"1424","ELEMENT_SET_NO":"999","REV_AT_EPOCH":"17","BSTAR":"0.00000000000000","MEAN_MOTION_DOT":"0.02080934","MEAN_MOTION_DDOT":"0.0138870000000","SEMIMAJOR_AXIS":"6593.948","PERIOD":"88.813","APOAPSIS":"282.747","PERIAPSIS":"148.879","OBJECT_TYPE":"PAYLOAD","RCS_SIZE":null,"COUNTRY_CODE":null,"LAUNCH_DATE":null,"SITE":null,"DECAY_DATE":"1965-06-30","FILE":"33911","GP_ID":"8701983","TLE_LINE0":"0 OPS 5501","TLE_LINE1":"1 01424U 65050  B 65177.84025741  .02080934 +13887-1 +00000-0 0  9998","TLE_LINE2":"2 01424 107.6357 256.6470 0101508 136.9517 223.9035 16.21380144000171"}]